{
  "norad_id": 48321,
  "name": "STARLINK-2457",
  "history": [
    {
      "epoch": "2026-03-28T18:57:40.035744Z",
      "apogee_km": 476.06138173527324,
      "perigee_km": 474.347498107978,
      "latitude_deg": -4.9157395522852226e-05,
      "longitude_deg": -98.332493674696,
      "height_km": 476.1710333326509,
      "semi_major_axis_km": 6853.341439921625,
      "eccentricity": 0.00012504,
      "inclination_deg": 53.163,
      "raan_deg": 12.2898,
      "arg_perigee_deg": 94.5618,
      "mean_anomaly_deg": 265.5525,
      "mean_motion_rev_day": 15.3020356
    },
    {
      "epoch": "2026-03-29T01:13:52.498848Z",
      "apogee_km": 476.0328361044176,
      "perigee_km": 474.31539633869124,
      "latitude_deg": -4.8259596491879246e-05,
      "longitude_deg": 166.14457230425046,
      "height_km": 476.2071237863083,
      "semi_major_axis_km": 6853.311116221554,
      "eccentricity": 0.0001253,
      "inclination_deg": 53.1623,
      "raan_deg": 11.0763,
      "arg_perigee_deg": 99.0201,
      "mean_anomaly_deg": 261.0941,
      "mean_motion_rev_day": 15.30213716
    },
    {
      "epoch": "2026-03-30T03:52:47.091360Z",
      "apogee_km": 476.26559754231675,
      "perigee_km": 474.1931395524689,
      "latitude_deg": -1.539092883640609e-05,
      "longitude_deg": 120.1653137391274,
      "height_km": 476.27995354815096,
      "semi_major_axis_km": 6853.366368547393,
      "eccentricity": 0.0001512,
      "inclination_deg": 53.1641,
      "raan_deg": 5.9189,
      "arg_perigee_deg": 98.4564,
      "mean_anomaly_deg": 261.6608,
      "mean_motion_rev_day": 15.30195211
    },
    {
      "epoch": "2026-03-30T11:43:02.772192Z",
      "apogee_km": 476.1202413375804,
      "perigee_km": 474.2898507439231,
      "latitude_deg": -6.207924573261817e-05,
      "longitude_deg": 0.7626600805779152,
      "height_km": 476.0915782488958,
      "semi_major_axis_km": 6853.3420460407515,
      "eccentricity": 0.00013354,
      "inclination_deg": 53.163,
      "raan_deg": 4.4035,
      "arg_perigee_deg": 89.2621,
      "mean_anomaly_deg": 270.8532,
      "mean_motion_rev_day": 15.30203357
    },
    {
      "epoch": "2026-03-30T17:59:15.453024Z",
      "apogee_km": 476.15310403993954,
      "perigee_km": 474.24006450322577,
      "latitude_deg": -9.822328488304886e-06,
      "longitude_deg": -94.76284500471814,
      "height_km": 476.1791636140914,
      "semi_major_axis_km": 6853.333584271582,
      "eccentricity": 0.00013957,
      "inclination_deg": 53.1647,
      "raan_deg": 3.1883,
      "arg_perigee_deg": 95.0479,
      "mean_anomaly_deg": 265.0681,
      "mean_motion_rev_day": 15.30206191
    },
    {
      "epoch": "2026-03-31T11:13:50.513664Z",
      "apogee_km": 476.9057892142009,
      "perigee_km": 473.56408505765285,
      "latitude_deg": 5.933086278523253e-05,
      "longitude_deg": 2.543873639249906,
      "height_km": 476.3723475685729,
      "semi_major_axis_km": 6853.371937135927,
      "eccentricity": 0.0002438,
      "inclination_deg": 53.1617,
      "raan_deg": 359.8492,
      "arg_perigee_deg": 98.2871,
      "mean_anomaly_deg": 261.8407,
      "mean_motion_rev_day": 15.30193346
    },
    {
      "epoch": "2026-04-01T10:44:39.172704Z",
      "apogee_km": 476.11672288577483,
      "perigee_km": 474.4362658969494,
      "latitude_deg": 1.4538303075131339e-05,
      "longitude_deg": 4.328029762585468,
      "height_km": 476.33119493396816,
      "semi_major_axis_km": 6853.413494391361,
      "eccentricity": 0.0001226,
      "inclination_deg": 53.1623,
      "raan_deg": 355.3018,
      "arg_perigee_deg": 100.7208,
      "mean_anomaly_deg": 259.3931,
      "mean_motion_rev_day": 15.30179428
    },
    {
      "epoch": "2026-04-02T21:14:01.306176Z",
      "apogee_km": 480.63040597305644,
      "perigee_km": 471.81158897350724,
      "latitude_deg": 3.864575770259284e-05,
      "longitude_deg": -161.10370645361888,
      "height_km": 477.5319937458842,
      "semi_major_axis_km": 6854.357997473282,
      "eccentricity": 0.0006433,
      "inclination_deg": 53.1616,
      "raan_deg": 348.6287,
      "arg_perigee_deg": 95.4885,
      "mean_anomaly_deg": 264.685,
      "mean_motion_rev_day": 15.2986316
    },
    {
      "epoch": "2026-04-02T22:47:39.518880Z",
      "apogee_km": 474.6204803387618,
      "perigee_km": 470.49485499599905,
      "latitude_deg": -1.809955035978632e-05,
      "longitude_deg": 175.1200395506258,
      "height_km": 472.3775121047233,
      "semi_major_axis_km": 6850.69466766738,
      "eccentricity": 0.00030111,
      "inclination_deg": 53.1613,
      "raan_deg": 348.3258,
      "arg_perigee_deg": 301.6686,
      "mean_anomaly_deg": 58.4021,
      "mean_motion_rev_day": 15.31090439
    },
    {
      "epoch": "2026-04-03T20:44:37.591872Z",
      "apogee_km": 475.8871014445813,
      "perigee_km": 474.6137420616187,
      "latitude_deg": 5.497770120044455e-06,
      "longitude_deg": -159.2693461840495,
      "height_km": 475.8774735990669,
      "semi_major_axis_km": 6853.387421753099,
      "eccentricity": 9.29e-05,
      "inclination_deg": 53.1606,
      "raan_deg": 344.0798,
      "arg_perigee_deg": 64.7424,
      "mean_anomaly_deg": 295.3673,
      "mean_motion_rev_day": 15.3018816
    },
    {
      "epoch": "2026-04-03T22:18:40.861440Z",
      "apogee_km": 475.89694890896044,
      "perigee_km": 474.59782136491503,
      "latitude_deg": 3.8540400533227245e-05,
      "longitude_deg": 176.8492772158882,
      "height_km": 475.8409180322592,
      "semi_major_axis_km": 6853.384385136937,
      "eccentricity": 9.478e-05,
      "inclination_deg": 53.1606,
      "raan_deg": 343.7764,
      "arg_perigee_deg": 61.9768,
      "mean_anomaly_deg": 298.1329,
      "mean_motion_rev_day": 15.30189177
    },
    {
      "epoch": "2026-04-04T21:49:28.251264Z",
      "apogee_km": 475.87385469106084,
      "perigee_km": 474.55568101203244,
      "latitude_deg": 2.382115679391121e-05,
      "longitude_deg": 178.63345645544584,
      "height_km": 475.75134723923446,
      "semi_major_axis_km": 6853.351767851546,
      "eccentricity": 9.617e-05,
      "inclination_deg": 53.1585,
      "raan_deg": 339.2237,
      "arg_perigee_deg": 56.6887,
      "mean_anomaly_deg": 303.4206,
      "mean_motion_rev_day": 15.30200101
    },
    {
      "epoch": "2026-04-05T19:46:13.553472Z",
      "apogee_km": 475.98037597676284,
      "perigee_km": 474.5480151268939,
      "latitude_deg": -4.09553218335174e-05,
      "longitude_deg": -155.70233936681672,
      "height_km": 476.2916953033242,
      "semi_major_axis_km": 6853.401195551828,
      "eccentricity": 0.0001045,
      "inclination_deg": 53.1585,
      "raan_deg": 334.978,
      "arg_perigee_deg": 100.3981,
      "mean_anomaly_deg": 259.7137,
      "mean_motion_rev_day": 15.30183547
    },
    {
      "epoch": "2026-04-06T06:00:02.000160Z",
      "apogee_km": 476.04365560336373,
      "perigee_km": 474.3984384705918,
      "latitude_deg": -7.732708856986047,
      "longitude_deg": -125.74847355766686,
      "height_km": 477.426408000484,
      "semi_major_axis_km": 6853.358047036978,
      "eccentricity": 0.00012003,
      "inclination_deg": 53.1578,
      "raan_deg": 332.997,
      "arg_perigee_deg": 100.9837,
      "mean_anomaly_deg": 88.5242,
      "mean_motion_rev_day": 15.30197998
    }
  ]
}